NAME,ADDRESS,STATE,LATITUDE,LONGITUDE,TELEPHONE
23D MEDICAL GROUP,3278 MITCHELL BOULEVARD,GA,30.97656122,-83.20729272,(229) 257-2778
30TH ADJUTANT GENERAL RECEPTION BATTALION - TMC 4,7950 MARTIN LOOP,GA,33.42351282,-82.15805095,(706) 544-9493
78TH MEDICAL GROUP,"655 7TH STREET, BUILDING 700, TRICARE OPERATIONS",GA,32.60402708,-83.58557011,(478) 327-7850
DWIGHT D. EISENHOWER ARMY MEDICAL CENTER,300 EAST HOSPITAL ROAD,GA,33.43033285,-82.12589716,(706) 787-5811
MARTIN ARMY COMMUNITY HOSPITAL,6600 VAN AALST BOULEVARD,GA,32.37180614,-84.92818509,(762) 408-2604
WINN ARMY COMMUNITY HOSPITAL,1061 HARMON AVE,GA,31.87225696,-81.60038895,(912) 435-6965
ADVENTHEALTH GORDON,1035 RED BUD ROAD,GA,34.5102282,-84.926543,(706) 629-2895
ADVENTHEALTH MURRAY,"707 OLD DALTON ELLIJAY ROAD, PO BOX 1406",GA,34.780041,-84.78317545,(706) 517-2031
APPLING HOSPITAL,163 E TOLLISON STREET,GA,31.76931073,-82.34884932,(912) 367-9841
ATRIUM HEALTH NAVICENT REHABILITATION HOSPITAL,3351 NORTHSIDE DRIVE,GA,32.89327202,-83.68046992,(478) 471-6500
ATRIUM HEALTH NAVICENT THE MEDICAL CENTER,777 HEMLOCK STREET,GA,32.83325388,-83.63550532,(478) 633-1000
AU MEDICAL CENTER,1120 15TH STREET,GA,33.47087633,-81.98970572,(706) 721-6569
BACON COUNTY HOSPITAL,302 SOUTH WAYNE STREET,GA,31.53947121,-82.45868668,(912) 632-8961
BLECKLEY MEMORIAL HOSPITAL,145 PEACOCK STREET,GA,32.38492234,-83.34685487,(478) 934-6211
BROOKS COUNTY HOSPITAL,903 N COURT STREET,GA,30.795015,-83.55906957,(912) 263-4171
BURKE MEDICAL CENTER,351 SOUTH LIBERTY STREET,GA,33.08347574,-82.01246217,(706) 554-4435
CANDLER COUNTY HOSPITAL,400 CEDAR STREET,GA,32.40713253,-82.06552421,(912) 685-5741
CANDLER HOSPITAL,5353 REYNOLDS STREET,GA,32.02816667,-81.10010925,(912) 819-6000
CHATUGE REGIONAL HOSPITAL,110 S MAIN STREET,GA,34.94657646,-83.7539153,(706) 896-2222
CHI MEMORIAL HOSPITAL - GEORGIA,100 GROSS CRESCENT CIRCLE,GA,34.94687793,-85.26367959,(770) 874-5400
CHILDREN'S HEALTHCARE OF ATLANTA AT EGLESTON,1405 CLIFTON ROAD NE,GA,33.79357068,-84.3196501,(404) 785-6101
CHILDREN'S HEALTHCARE OF ATLANTA AT SCOTTISH RITE,1001 JOHNSON FERRY ROAD,GA,33.90608164,-84.35395184,(404) 785-5252
CLINCH MEMORIAL HOSPITAL,1050 VALDOSTA HIGHWAY,GA,31.03410008,-82.76427224,(912) 487-5211
COASTAL BEHAVIORAL HEALTH,633 STEPHENSON AVENUE,GA,32.00984663,-81.10183392,(912) 354-3911
COASTAL HARBOR TREATMENT CENTER,1150 CORNELL AVE,GA,32.01225143,-81.09558137,(912) 354-3911
"COFFEE REGIONAL MEDICAL CENTER, INC",1101 OCILLA ROAD,GA,31.51118816,-82.8645826,(912) 383-5620
COLQUITT REGIONAL MEDICAL CENTER,"3131 THOMASVILLE HWY, PO BOX 40",GA,31.1256301,-83.78037885,(229) 985-3420
"COLUMBUS SPECIALTY HOSPITAL, INC",616 19TH STREEET,GA,32.48021093,-84.98461848,(706) 494-4075
CRISP REGIONAL HOSPITAL,902 7TH STREET NORTH,GA,31.97752285,-83.78134503,(229) 276-3100
DOCTORS HOSPITAL,3651 WHEELER ROAD,GA,33.48615997,-82.09443245,(706) 651-6008
DODGE COUNTY HOSPITAL,901 GRIFFIN AVE,GA,32.18556223,-83.17787676,(478) 448-4067
DONALSONVILLE HOSPITAL INC,102 HOSPITAL CIR,GA,31.05123779,-84.88063362,(229) 524-5217
DORMINY MEDICAL CENTER,"200 PERRY HOUSE ROAD, BOX 1447",GA,31.69756452,-83.26014598,(229) 424-7100
EAST CENTRAL REGIONAL HOSPITAL,3405 MIKE PADGETT HWY,GA,33.39693217,-82.01187344,(706) 792-7006
EAST GEORGIA REGIONAL MEDICAL CENTER,1499 FAIR ROAD,GA,32.41479139,-81.76996101,(912) 486-1500
EFFINGHAM HEALTH SYSTEM,459 GA HIGHWAY 119 SOUTH,GA,32.36383517,-81.32091296,(912) 754-0160
ELBERT MEMORIAL HOSPITAL,4 MEDICAL DRIVE,GA,34.11339324,-82.8749545,(706) 213-2535
EMANUEL MEDICAL CENTER,117 KITE ROAD,GA,32.59249776,-82.34780425,(478) 289-1304
EMORY DECATUR HOSPITAL,2701 N DECATUR ROAD,GA,33.79108914,-84.2829101,(404) 501-1000
EMORY HILLANDALE HOSPITAL,2801 DEKALB MEDICAL PARKWAY,GA,33.70522032,-84.14798272,(404) 501-8040
EMORY JOHNS CREEK HOSPITAL,6325 HOSPITAL PARKWAY,GA,34.06667514,-84.17662808,(678) 474-7000
EMORY LONG TERM ACUTE CARE,450 NORTH CANDLER STREET,GA,33.77747,-84.29291696,(404) 377-0221
EMORY REHABILITATION HOSPITAL,1441 CLIFTON ROAD NE,GA,33.79488234,-84.32053107,(404) 712-5512
EMORY UNIV HOSPITAL - EMORY UNIV ORTHO AND SPINE,1455 MONTREAL ROAD,GA,33.8262246,-84.24818414,(404) 712-2000
EMORY UNIVERSITY HOSPITAL,1364 CLIFTON ROAD NE,GA,33.79202283,-84.3222632,(404) 686-8500
EMORY UNIVERSITY HOSPITAL MIDTOWN,550 PEACHTREE STREET NE,GA,33.76917466,-84.38673157,(404) 686-4411
EMORY UNIVERSITY HOSPITAL SMYRNA,3949 SOUTH COBB DRIVE,GA,33.8578131,-84.5131438,(404) 686-7288
ENCOMPASS HEALTH REHAB HOSPITAL OF SAVANNAH,6510 SEAWRIGHT DRIVE,GA,32.00754331,-81.09374375,(912) 235-6000
ENCOMPASS HEALTH REHABILITATION HOSPITAL CUMMING,1165 SANDERS ROAD,GA,34.178903,-84.127953,(470) 533-4200
EVANS MEMORIAL HOSPITAL,200 N RIVER STREET,GA,32.16588314,-81.89902445,(912) 739-5105
FAIRVIEW PARK HOSPITAL,200 INDUSTRIAL BOULEVARD,GA,32.5321546,-82.95040931,(478) 274-3100
FANNIN REGIONAL HOSPITAL,2855 OLD HIGHWAY 5 NORTH,GA,34.91773614,-84.3746432,(706) 632-3711
FLINT RIVER COMMUNITY HOSPITAL,"509 SUMTER STREET, PO BOX 770",GA,32.29498489,-84.03075419,(478) 472-3100
FLOYD MEDICAL CENTER,"304 TURNER MCCALL BLVD, PO BOX 233",GA,34.25975347,-85.17914532,(706) 509-6900
GEORGIA REGIONAL HOSP SAVANNAH,1915 EISENHOWER DRIVE,GA,32.00050407,-81.08090851,(912) 356-2045
GEORGIA REGIONAL HOSPITAL ATLANTA,3073 PANTHERSVILLE ROAD,GA,33.69619223,-84.27410662,(404) 243-2100
GRADY GENERAL HOSPITAL,1155 5TH STREET SE,GA,30.8637239,-84.19908623,(229) 377-0251
GRADY MEMORIAL HOSPITAL,80 JESSE HILL JR DRIVE SE,GA,33.75198855,-84.38179157,(404) 616-4252
GREENLEAF CENTER,2209 PINEVIEW DRIVE,GA,30.86015739,-83.25913322,(229) 671-6601
HABERSHAM COUNTY MEDICAL CTR,541 HISTORIC HIGHWAY 441 NORTH,GA,34.58144208,-83.53685905,(706) 754-2161
HAMILTON MEDICAL CENTER,1200 MEMORIAL DRIVE,GA,34.78973493,-84.98497692,(706) 272-6105
HIGGINS GENERAL HOSPITAL,200 ALLEN MEMORIAL DRIVE,GA,33.71672724,-85.14502029,(770) 812-2000
HOUSTON MEDICAL CENTER,1601 WATSON BOULEVARD,GA,32.61759391,-83.63093479,(478) 922-4281
HUGHES SPALDING CHILDREN'S HOSPITAL,1711 TULLIE CIRCLE NE,GA,33.83081606,-84.32896998,(404) 785-6096
IRWIN COUNTY HOSPITAL,710 N IRWIN AVENUE,GA,31.60338057,-83.25099895,(229) 468-3845
JASPER MEMORIAL HOSPITAL,898 COLLEGE STREET,GA,33.31419258,-83.68648212,(706) 468-6411
JEFF DAVIS HOSPITAL,163 SOUTH TALLAHASSEE STREET,GA,31.85720986,-82.60714696,(912) 375-7781
JEFFERSON HOSPITAL,1067 PEACHTREE ST,GA,33.00986749,-82.40554579,(478) 625-7000
JENKINS COUNTY MEDICAL CENTER,931 EAST WINTHROPE AVENUE,GA,32.80423951,-81.93453709,(478) 982-4221
JOHN D ARCHBOLD MEMORIAL HOSPITAL,915 GORDON AVENUE AND MIMOSA DRIVE,GA,30.82529031,-83.97225237,(229) 228-2880
LAKEVIEW BEHAVIORAL HEALTH SYSTEM,1 TECHNOLOGY PARKWAY SOUTH,GA,33.95691291,-84.21813574,(678) 713-2600
"LANDMARK HOSPITAL OF ATHENS, LLC",775 SUNSET DRIVE,GA,33.96643341,-83.41157103,(706) 425-1518
LANDMARK HOSPITAL OF SAVANNAH,800 E 68TH STREET,GA,32.02857158,-81.09510911,(573) 331-8420
LAUREL HEIGHTS HOSPITAL,934 BRIARCLIFF ROAD,GA,33.78008904,-84.3453322,(404) 888-7860
LIBERTY REGIONAL MEDICAL CENTER,462 E G MILES PARKWAY,GA,31.83960572,-81.6009201,(912) 369-9438
LIFEBRITE COMMUNITY HOSPITAL OF EARLY,11740 COLUMBIA STREET,GA,31.37366986,-84.94601249,(229) 723-4241
LIGHTHOUSE CARE CENTER OF AUGUSTA,3100 PERIMETER PARKWAY,GA,33.49082902,-82.08742866,(706) 651-0005
"LOWER OCONEE COMMUNITY HOSPITAL, INC",111 NORTH 3RD STREET,GA,32.18006795,-82.67208637,(912) 523-5113
MEDICAL CENTER OF PEACH COUNTY - NAVICENT HEALTH,1960 HIGHWAY 247 CONNECTOR,GA,32.60465684,-83.75895685,(478) 654-2000
MEMORIAL HEALTH MEADOWS HOSPITAL,1 MEADOWS PARKWAY,GA,32.20859527,-82.3752472,(912) 535-5828
MEMORIAL HEALTH UNIVERSITY MEDICAL CENTER,4700 WATERS AVENUE,GA,32.03053088,-81.08886242,(912) 350-3691
MEMORIAL HOSPITAL AND MANOR,1500 E SHOTWELL STREET,GA,30.90277398,-84.55244719,(229) 246-3500
MEMORIAL SATILLA HEALTH,1900 TEBEAU STREET,GA,31.22522139,-82.34827886,(912) 287-2500
MILLER COUNTY HOSPITAL,209 N CUTHBERT STREET,GA,31.17548231,-84.73501832,(229) 758-4231
MITCHELL COUNTY HOSPITAL,90 STEPHENS STREET,GA,31.22971988,-84.20554348,(229) 336-5284
MONROE COUNTY HOSPITAL,88 MARTIN LUTHER KING JR DRIVE,GA,33.03125664,-83.94595922,(478) 994-2521
MORGAN MEDICAL CENTER,1740 LIONS CLUB ROAD,GA,33.56870368,-83.47168277,(706) 342-1667
MOUNTAIN LAKES MEDICAL CENTER,162 LEGACY POINT,GA,34.8922958,-83.39353635,(706) 782-3100
NAVICENT HEALTH BALDWIN,821 NORTH COBB STREET,GA,33.08943825,-83.24584144,(478) 454-3550
NORTHEAST GEORGIA MEDICAL CENTER BARROW,316 NORTH BROAD STREET,GA,34.008053,-83.707254,(770) 848-8611
NORTHEAST GEORGIA MEDICAL CENTER LUMPKIN,227 MOUNTAIN DRIVE,GA,34.52283376,-83.97562878,(770) 219-7146
"NORTHEAST GEORGIA MEDICAL CENTER, INC",743 SPRING STREET,GA,34.30325528,-83.8179282,(770) 535-3553
NORTHSIDE HOSPITAL,1000 JOHNSON FERRY ROAD NE,GA,33.90891163,-84.35392464,(404) 851-8000
NORTHSIDE HOSPITAL CHEROKEE,450 NORTHSIDE CHEROKEE BOULEVARD,GA,34.229238,-84.466259,(770) 244-1000
NORTHSIDE HOSPITAL DULUTH,3620 HOWELL FERRY ROAD,GA,33.99972206,-84.16342505,(678) 312-1000
NORTHSIDE HOSPITAL FORSYTH,1200 NORTHSIDE FORSYTH DRIVE,GA,34.17759706,-84.1414718,(770) 844-3200
NORTHSIDE HOSPITAL GWINNETT,1000 MEDICAL CENTER BOULEVARD,GA,33.96367678,-84.01756345,(678) 312-1000
OPTIM MEDICAL CENTER - SCREVEN,215 MIMS ROAD,GA,32.7502504,-81.64701956,(912) 564-7426
OPTIM MEDICAL CENTER - TATTNALL,247 S MAIN STREET,GA,32.08052775,-82.10912263,(912) 557-1000
PEACHFORD BEHAVIORAL HEALTH SYSTEM OF ATLANTA,2151 PEACHFORD ROAD,GA,33.92873708,-84.30061446,(770) 455-3200
PERRY HOSPITAL,1120 MORNINGSIDE DR,GA,32.45962324,-83.71002552,(478) 987-3600
PHOEBE PUTNEY MEMORIAL HOSPITAL,417 THIRD AVENUE,GA,31.59021975,-84.15862347,(229) 312-4068
PHOEBE SUMTER MEDICAL CENTER,126 HIGHWAY 280 W,GA,32.06696234,-84.2560502,(229) 931-1280
PHOEBE WORTH MEDICAL CENTER,807 SOUTH ISABELLA STREET,GA,31.5117226,-83.84015579,(229) 777-3851
PIEDMONT ATHENS REGIONAL MEDICAL CENTER,1199 PRINCE AVENUE,GA,33.96129247,-83.39794507,(706) 475-7000
PIEDMONT CARTERSVILLE MEDICAL CENTER,960 JOE FRANK HARRIS PARKWAY,GA,34.20049389,-84.79483359,(470) 490-1000
PIEDMONT COLUMBUS REGIONAL MIDTOWN,710 CENTER STREET,GA,32.48085872,-84.98117702,(706) 571-1000
PIEDMONT COLUMBUS REGIONAL NORTHSIDE,100 FRIST COURT,GA,32.5345248,-84.95121257,(706) 494-2101
PIEDMONT EASTSIDE MEDICAL CENTER,1700 MEDICAL WAY,GA,33.87756855,-84.02107387,(770) 979-0200
PIEDMONT FAYETTE HOSPITAL,1255 HIGHWAY 54 WEST,GA,33.45214711,-84.50798999,(770) 719-7000
PIEDMONT HENRY HOSPITAL,1133 EAGLE'S LANDING PARKWAY,GA,33.51033543,-84.22729518,(678) 604-1000
PIEDMONT HOSPITAL,1968 PEACHTREE RD NW,GA,33.80881537,-84.39441534,(404) 605-5000
PIEDMONT MACON MEDICAL CENTER,350 HOSPITAL DRIVE,GA,32.84740818,-83.61868521,(478) 765-7000
PIEDMONT MACON NORTH HOSPITAL,400 CHARTER BOULEVARD,GA,32.87159196,-83.69471087,(478) 757-8200
PIEDMONT MOUNTAINSIDE HOSPITAL INC,1266 HIGHWAY 515 SOUTH,GA,34.45824868,-84.41291289,(706) 301-5269
"PIEDMONT NEWNAN HOSPITAL, INC",745 POPLAR ROAD,GA,33.35712855,-84.75501904,(770) 400-2300
PIEDMONT NEWTON HOSPITAL,5126 HOSPITAL DRIVE NE,GA,33.60134,-83.84843,(770) 786-7053
PIEDMONT ROCKDALE HOSPITAL,1412 MILSTEAD AVENUE NE,GA,33.68072383,-84.00157525,(770) 918-3000
"PIEDMONT WALTON HOSPITAL, INC",2151 W SPRING STREET,GA,33.79894478,-83.75014125,(770) 267-8461
POLK MEDICAL CENTER,2360 ROCKMART HIGHWAY,GA,34.01381687,-85.19627158,(770) 748-2500
PUTNAM GENERAL HOSPITAL,101 LAKE OCONEE PARKWAY,GA,33.3358662,-83.37094562,(706) 485-2711
REDMOND REGIONAL MEDICAL CENTER,501 REDMOND ROAD,GA,34.27679339,-85.19492929,(706) 802-3012
"REGENCY HOSPITAL COMPANY OF MACON, LLC",535 COLISEUM DRIVE,GA,32.84770524,-83.61527747,(478) 803-7300
REGIONAL PSYCHIATRIC DIVISION - CENTRAL STATE,620 BROAD STREET,GA,33.029681,-83.203857,(478) 445-4128
REHABILITATION HOSPITAL OF HENRY,2200 PATRICK HENRY PARKWAY,GA,33.48692147,-84.2147095,(470) 713-2000
REHABILITATION HOSPITAL OF NEWNAN,2101 EAST NEWNAN CROSSING BLVD,GA,33.3628746,-84.75162672,(678) 552-6200
RIDGEVIEW INSTITUTE,3995 S COBB DRIVE SE,GA,33.85644329,-84.51105483,(770) 434-4567
RIDGEVIEW INSTITUTE MONROE,709 BREEDLOVE DRIVE,GA,33.78317031,-83.71857923,(678) 635-8730
RIVERWOODS BEHAVIORAL HEALTH SYSTEM,223 MEDICAL CENTER DRIVE,GA,33.58221296,-84.39071671,(770) 991-8500
ROOSEVELT WARM SPRINGS LTAC HOSPITAL,"6135 ROOSEVELT HIGHWAY, PO BOX 280",GA,32.88798074,-84.6923449,(706) 655-5515
ROOSEVELT WARM SPRINGS REHABILITATION HOSPITAL,"6135 ROOSEVELT HIGHWAY, PO BOX 280",GA,32.88732639,-84.69407001,(706) 655-5515
"SAINT JOSEPH'S HOSPITAL OF ATLANTA, INC",5665 PEACHTREE DUNWOODY ROAD,GA,33.90875798,-84.3489835,(678) 843-5720
"SELECT SPECIALTY HOSPITAL - AUGUSTA, INC",1537 WALTON WAY,GA,33.47633313,-81.99031409,(706) 731-1200
"SELECT SPECIALTY HOSPITAL - MIDTOWN ATLANTA, LLC",705 JUNIPER STREET NE,GA,33.77377717,-84.38275435,(404) 873-2871
"SELECT SPECIALTY HOSPITAL - SAVANNAH, INC",5353 REYNOLDS STREET 4 SOUTH,GA,32.02790058,-81.10031062,(912) 819-7986
SGMC BERRIEN CAMPUS,1221 E MCPHERSON AVENUE,GA,31.20307104,-83.23870728,(229) 543-7100
SGMC LANIER CAMPUS,116 WEST THIGPEN AVENUE,GA,31.04223522,-83.08605202,(229) 482-8402
SHEPHERD CENTER,2020 PEACHTREE RD NW,GA,33.81006102,-84.39376186,(404) 350-7311
SO CRESCENT BEH HLTH SYS - ANCHOR HOSPITAL CAMPUS,5454 YORKTOWNE DRIVE,GA,33.60699354,-84.45218911,(770) 991-6044
SO CRESCENT BEH HLTH SYS - CRESCENT PINES CAMPUS,1000 EAGLES LANDING PARKWAY,GA,33.51297678,-84.2217832,(770) 474-8888
SOUTH GEORGIA MEDICAL CENTER,"2501 NORTH PATTERSON STREET, PO BOX 1727",GA,30.86227044,-83.28647036,(229) 333-1020
SOUTHEAST GEORGIA HEALTH SYSTEM - BRUNSWICK CAMPUS,2415 PARKWOOD DRIVE,GA,31.17508058,-81.48431293,(912) 466-7000
SOUTHEAST GEORGIA HEALTH SYSTEM - CAMDEN CAMPUS,2000 DAN PROCTOR DRIVE,GA,30.78090229,-81.61510891,(912) 576-6401
SOUTHEASTERN REGIONAL MEDICAL CENTER,600 CELEBRATE LIFE PARKWAY NORTH,GA,33.38483465,-84.75774669,(404) 844-8334
SOUTHERN CROSS SURGERY CENTER,"1301 SIGMAN ROAD NE, SUITE 120",GA,33.6824801,-83.9957983,(222) 333-4444
SOUTHERN REGIONAL MEDICAL CENTER,11 UPPER RIVERDALE ROAD SW,GA,33.57901979,-84.38995142,(770) 991-8160
SOUTHWELL MEDICAL - A CAMPUS OF TRMC,260 MJ TAYLOR ROAD,GA,31.10819893,-83.42737285,(229) 896-8077
ST FRANCIS HOSPITAL - EMORY HEALTHCARE,2122 MANCHESTER EXPRESSWAY,GA,32.50638542,-84.96067899,(706) 596-4020
ST JOSEPH'S HOSPITAL - SAVANNAH,11705 MERCY BOULEVARD,GA,31.98543032,-81.15455637,(912) 819-4100
ST MARY'S GOOD SAMARITAN HOSPITAL,5401 LAKE OCONEE PARKWAY,GA,33.48143224,-83.24222511,(706) 453-7331
ST MARY'S HOSPITAL,1230 BAXTER STREET,GA,33.94722132,-83.40525246,(706) 389-3930
"ST MARY'S SACRED HEART HOSPITAL, INC",367 CLEAR CREEK PARKWAY,GA,34.43972191,-83.13239384,(706) 356-7800
ST SIMONS - BY THE SEA,2927 DEMERE ROAD,GA,31.16402605,-81.40232648,(912) 638-1999
STEPHENS COUNTY HOSPITAL,163 HOSPITAL DRIVE,GA,34.59286194,-83.34807369,(706) 282-4250
SUMMITRIDGE CENTER - PSYCHIATRY AND ADDICTIVE MED,250 SCENIC HIGHWAY,GA,33.94238602,-83.98959993,(678) 442-5800
TANNER MEDICAL CENTER - CARROLLTON,705 DIXIE STREET,GA,33.56947772,-85.0752262,(770) 836-9580
TANNER MEDICAL CENTER VILLA RICA,601 DALLAS HIGHWAY,GA,33.74428376,-84.91667102,(770) 456-3101
TAYLOR REGIONAL HOSPITAL,222 PERRY HWY,GA,32.29784992,-83.48511633,(478) 783-0200
TIFT REGIONAL MEDICAL CENTER,901 E 18TH STREET,GA,31.47134618,-83.49143696,(229) 382-7120
TURNING POINT HOSPITAL,3015 VETERANS PARKWAY,GA,31.127625,-83.770096,(229) 985-4815
UNION GENERAL HOSPITAL,35 HOSPITAL ROAD,GA,34.8861,-83.9623,(706) 745-2111
UNIVERSITY HOSPITAL,1350 WALTON WAY,GA,33.47068485,-81.98251057,(706) 722-9011
UNIVERSITY HOSPITAL MCDUFFIE,2460 WASHINGTON ROAD,GA,33.52306854,-82.50193876,(706) 595-1411
UPSON REGIONAL MEDICAL CENTER,801 W GORDON STREET,GA,32.8862977,-84.33650699,(706) 647-8111
VERITAS COLLABORATIVE GEORGIA,"41 PERIMETER CENTER EAST, SUITE 400",GA,33.9242473,-84.33106507,(770) 871-3750
WALTON REHAB HOSPITAL - AFFILIATE OF ENCOMPASS HLTH,1355 INDEPENDENCE DRIVE,GA,33.47470392,-81.98030553,(706) 724-7746
WARM SPRINGS MEDICAL CENTER,5995 SPRING STREET,GA,32.8896319,-84.68374246,(706) 655-9351
WASHINGTON COUNTY REGIONAL MEDICAL CENTER,610 SPARTA ROAD,GA,32.99585948,-82.80411552,(478) 240-2100
WAYNE MEMORIAL HOSPITAL,865 SOUTH FIRST STREET,GA,31.60095713,-81.89990856,(912) 530-3302
WELLSTAR ATLANTA MEDICAL CENTER,303 PARKWAY DRIVE NE,GA,33.76295,-84.37339,(404) 265-4000
WELLSTAR COBB HOSPITAL,3950 AUSTELL RD,GA,33.85754197,-84.6050249,(770) 732-4000
WELLSTAR DOUGLAS HOSPITAL,8954 HOSPITAL DRIVE,GA,33.73911793,-84.73152391,(770) 949-1500
WELLSTAR KENNESTONE HOSPITAL,677 CHURCH STREET,GA,33.96795254,-84.55135211,(770) 793-5000
WELLSTAR NORTH FULTON HOSPITAL,3000 HOSPITAL BOULEVARD,GA,34.06332132,-84.31997247,(770) 751-2500
WELLSTAR PAULDING HOSPITAL,2518 JIMMY LEE SMITH PARKWAY,GA,33.9007283,-84.78072591,(470) 644-7000
WELLSTAR SPALDING REGIONAL HOSPITAL,601 SOUTH 8TH STREET,GA,33.23923023,-84.26769905,(770) 228-2721
WELLSTAR SYLVAN GROVE HOSPITAL,1050 MCDONOUGH ROAD,GA,33.30381367,-83.97778738,(770) 775-7861
WELLSTAR WEST GEORGIA MEDICAL CENTER,1514 VERNON ROAD,GA,33.03159067,-85.05795342,(706) 882-1411
WELLSTAR WINDY HILL HOSPITAL,2540 WINDY HILL ROAD,GA,33.89976139,-84.4794458,(770) 644-1081
WEST CENTRAL GEORGIA REGIONAL HOSPITAL,"3000 SCHATULGA RD, PO BOX 12435",GA,32.49019081,-84.8685576,(706) 568-5203
WILLINGWAY HOSPITAL,311 JONES MILL ROAD,GA,32.4442835,-81.7577227,(912) 764-6236
WILLS MEMORIAL HOSPITAL,120 GORDON STREET,GA,33.72860629,-82.74239942,(706) 678-9212
ATLANTA VA MEDICAL CENTER,1670 CLAIRMONT ROAD,GA,33.801861,-84.311425,(404) 321-6111
CHARLIE NORWOOD DEPARTMENT OF VETERANS AFFAIRS MEDICAL CENTER,950 15TH STREET,GA,33.464616,-82.025447,(706) 733-0188
CHARLTON MEMORIAL HOSPITAL,2449 THIRD STREET,GA,30.84527535,-82.00505739,NOT AVAILABLE
BROWN MEMORIAL CONVALESCENT CENTER,545 COOK STREET,GA,34.28325037,-83.11897237,(706) 245-1900
STEWART WEBSTER HOSPITAL,580 ALSTON STREET,GA,32.08616827,-84.66069977,(229) 887-3366
WEST PACES MEDICAL CENTER,3200 HOWELL MILL ROAD,GA,33.84252443,-84.42708736,(404) 351-0351
YOUTH VILLAGES - INNER HARBOUR CAMPUS,4685 DORSETT SHOALS ROAD,GA,33.67768895,-84.73391954,(770) 489-0406
EMORY UNIVERSITY HOSPITAL - WESLEY WOODS GERIATRIC HOSPITAL,"1821 CLIFTON ROAD, NE",GA,33.80487845,-84.33140996,NOT AVAILABLE
SOUTHERN CRESCENT HOSPITAL FOR SPECIALTY CARE,11 UPPER RIVERDALE ROAD SW,GA,33.5793287,-84.3891338,NOT AVAILABLE
MIDTOWN MEDICAL CENTER WEST,616 19TH STREET,GA,32.48010887,-84.98509377,(706) 494-4262
MOUNTAIN LAKES MEDICAL CENTER,196 RIDGECREST CIRCLE,GA,34.88366763,-83.41469014,NOT AVAILABLE
EMORY UNIVERSITY HOSPITAL,1821 CLIFTON ROAD NE,GA,33.80481896,-84.33117202,NOT AVAILABLE
SOUTHWEST GEORGIA REGIONAL MEDICAL,361 RANDOLPH STREET,GA,31.77536552,-84.7934916,NOT AVAILABLE
PHOEBE NORTH,2000 PALMYRA ROAD,GA,31.60659256,-84.16941454,(229) 434-2000
EAST CENTRAL REGIONAL HOSPITAL - GRACEWOOD,100 MYRTLE BOULEVARD,GA,33.36897079,-82.02964375,NOT AVAILABLE
CHILDREN'S HOSPITAL NAVICENT HEALTH,888 PINE STREET,GA,32.83472905,-83.63666986,(478) 633-5437
RINCON MEDICAL CENTER,119 CHIMNEY ROAD,GA,32.25822576,-81.21737345,(912) 295-5560
"WELLSTAR ATLANTA MEDICAL CENTER , INC",1170 CLEVELAND AVE,GA,33.68027171,-84.42689474,NOT AVAILABLE
MORGAN MEMORIAL HOSPITAL,1077 SOUTH MAIN STREET,GA,33.58493524,-83.48056681,NOT AVAILABLE
LAKE BRIDGE BEHAVIORAL HEALTH SYSTEM,3500 RIVERSIDE DRIVE,GA,32.89557107,-83.68259834,NOT AVAILABLE
COLISEUM PSYCHIATRIC HOSPITAL,340 HOSPITAL DRIVE,GA,32.84718953,-83.61985197,(478) 765-7000
CARL VINSON VA MEDICAL CENTER,1826 VETERANS BLVD,GA,32.53648137,-82.9432264,(478) 272-1210
TRINITY HOSPITAL OF AUGUSTA,2260 WRIGHTSBORO ROAD,GA,33.46572907,-82.0183653,(706) 481-7000
HILLSIDE HOSPITAL,690 COURTENAY DRIVE NE,GA,33.79088124,-84.36541034,(404) 875-4551
CALHOUN MEMORIAL HOSPITAL,55 R E JENNINGS AVE SE,GA,31.43600381,-84.72154643,NOT AVAILABLE
COOK MEDICAL CENTER,706 NORTH PARRISH AVENUE,GA,31.14456949,-83.42453855,(229) 896-8077
WILDWOOD LIFESTYLE CENTER AND HOSPITAL,435 LIFESTYLE LANE,GA,34.98075749,-85.40189129,NOT AVAILABLE
NORTH GEORGIA MEDICAL CENTER,1362 SOUTH MAIN STREET,GA,34.67856195,-84.49337651,NOT AVAILABLE
PRIDE MEDICAL,3280 HOWELL MILL ROAD NW,GA,33.84329175,-84.42860127,(404) 355-3788
SOUTHWESTERN STATE HOSPITAL,400 SOUTH PINE TREE BLVD,GA,30.80828659,-83.99389357,NOT AVAILABLE
SGMC SMITH NORTHVIEW HOSPITAL,4280 NORTH VALDOSTA ROAD,GA,30.89863693,-83.33555852,(229) 433-8000
NORTHRIDGE MEDICAL CENTER,70 MEDICAL CENTER DRIVE,GA,34.21939857,-83.46900739,NOT AVAILABLE
TY COBB HEALTHCARE SYSTEM - HART COUNTY HOSPITAL,GIBSON AND CADE STREETS,GA,34.34663565,-82.93947389,(706) 356-7800
GLANCYREHABILITATION HOSPITAL,3215 MCCLURE BRIDGE ROAD,GA,34.0068349,-84.15290664,NOT AVAILABLE
"DEVEREUX FOUNDATION, INC.",1291 STANLEY ROAD NW,GA,33.98626215,-84.60626393,(770) 427-0147
EMORY DUNWOODY MEDICAL CENTER,4500 NORTH SHALLOWFORD ROAD,GA,33.92502326,-84.30876592,(404) 778-6920
BRADLEY CENTER OF SAINT FRANCIS,2000 SIXTEENTH AVENUE,GA,32.48269659,-84.96811113,(706) 320-3700
NORTHEAST GEORGIA MEDICAL CENTER INC.,1400 RIVER PLACE,GA,34.120536,-83.8377,(770) 848-8000
HUGHES SPALDING CHILDRENS HOSP,35 JESSE HILL JR DR SE,GA,33.753896,-84.382067,(404) 785-5437
